start=new Date('2022-11-02T00:00:00.000Z').valueOf();
sats=[{"ECCENTRICITY":"0.00021400","MEAN_MOTION_DOT":"-0.00000058","BSTAR":"0.00001449500000","DECAY_DATE":null,"OBJECT_ID":"2022-049BC","SEMIMAJOR_AXIS":"6917.860","GP_ID":"216687595","EPOCH":"2022-11-01T16:39:10.406880","REF_FRAME":"TEME","TLE_LINE1":"1 52501U 22049BC  22305.69387045 -.00000058  00000-0  14495-4 0  9995","MEAN_MOTION_DDOT":"0.0000000000000","COUNTRY_CODE":"US","REV_AT_EPOCH":"2761","TLE_LINE2":"2 52501  53.2179 143.8586 0002140  52.7216 307.3971 15.08846706 27618","MEAN_ELEMENT_THEORY":"SGP4","EPHEMERIS_TYPE":"0","CLASSIFICATION_TYPE":"U","TIME_SYSTEM":"UTC","ELEMENT_SET_NO":"999","RCS_SIZE":"LARGE","OBJECT_NAME":"STARLINK-3907","PERIOD":"95.437","CENTER_NAME":"EARTH","NORAD_CAT_ID":"52501","APOAPSIS":"541.205","FILE":"3640431","PERIAPSIS":"538.244","ARG_OF_PERICENTER":"52.7216","INCLINATION":"53.2179","LAUNCH_DATE":"2022-05-06","OBJECT_TYPE":"PAYLOAD","SITE":"AFETR","RA_OF_ASC_NODE":"143.8586","MEAN_MOTION":"15.08846706","MEAN_ANOMALY":"307.3971"},{"MEAN_ELEMENT_THEORY":"SGP4","REV_AT_EPOCH":"2773","TLE_LINE2":"2 52502  53.2155 134.2677 0001745  65.8984 294.2190 15.08833906 27733","MEAN_MOTION_DDOT":"0.0000000000000","TLE_LINE1":"1 52502U 22049BD  22305.59911318  .00000689  00000-0  61409-4 0  9997","COUNTRY_CODE":"US","SEMIMAJOR_AXIS":"6917.899","GP_ID":"216685847","EPOCH":"2022-11-01T14:22:43.378752","REF_FRAME":"TEME","DECAY_DATE":null,"OBJECT_ID":"2022-049BD","BSTAR":"0.00006140900000","ECCENTRICITY":"0.00017450","MEAN_MOTION_DOT":"0.00000689","MEAN_ANOMALY":"294.2190","SITE":"AFETR","RA_OF_ASC_NODE":"134.2677","MEAN_MOTION":"15.08833906","INCLINATION":"53.2155","LAUNCH_DATE":"2022-05-06","OBJECT_TYPE":"PAYLOAD","PERIAPSIS":"538.557","ARG_OF_PERICENTER":"65.8984","APOAPSIS":"540.971","FILE":"3640431","PERIOD":"95.438","CENTER_NAME":"EARTH","NORAD_CAT_ID":"52502","RCS_SIZE":"LARGE","OBJECT_NAME":"STARLINK-3912","EPHEMERIS_TYPE":"0","CLASSIFICATION_TYPE":"U","ELEMENT_SET_NO":"999","TIME_SYSTEM":"UTC"},{"COUNTRY_CODE":"US","TLE_LINE1":"1 52503U 22049BE  22305.80055220  .00000247  00000-0  33599-4 0  9992","MEAN_MOTION_DDOT":"0.0000000000000","EPOCH":"2022-11-01T19:12:47.710080","REF_FRAME":"TEME","GP_ID":"216686097","SEMIMAJOR_AXIS":"6917.885","MEAN_ELEMENT_THEORY":"SGP4","REV_AT_EPOCH":"2776","TLE_LINE2":"2 52503  53.2169 133.3658 0001905  55.5314 304.5858 15.08838452 27769","MEAN_MOTION_DOT":"0.00000247","ECCENTRICITY":"0.00019050","OBJECT_ID":"2022-049BE","DECAY_DATE":null,"BSTAR":"0.00003359900000","OBJECT_TYPE":"PAYLOAD","INCLINATION":"53.2169","LAUNCH_DATE":"2022-05-06","PERIAPSIS":"538.432","ARG_OF_PERICENTER":"55.5314","MEAN_ANOMALY":"304.5858","RA_OF_ASC_NODE":"133.3658","MEAN_MOTION":"15.08838452","SITE":"AFETR","RCS_SIZE":"LARGE","OBJECT_NAME":"STARLINK-3861","TIME_SYSTEM":"UTC","ELEMENT_SET_NO":"999","EPHEMERIS_TYPE":"0","CLASSIFICATION_TYPE":"U","FILE":"3640431","APOAPSIS":"541.068","PERIOD":"95.438","NORAD_CAT_ID":"52503","CENTER_NAME":"EARTH"},{"LAUNCH_DATE":"2022-05-13","INCLINATION":"53.2154","OBJECT_TYPE":"PAYLOAD","PERIAPSIS":"538.292","ARG_OF_PERICENTER":"42.3796","MEAN_ANOMALY":"317.7361","SITE":"AFWTR","RA_OF_ASC_NODE":"223.4326","MEAN_MOTION":"15.08833276","RCS_SIZE":"LARGE","OBJECT_NAME":"STARLINK-3951","EPHEMERIS_TYPE":"0","CLASSIFICATION_TYPE":"U","TIME_SYSTEM":"UTC","ELEMENT_SET_NO":"999","APOAPSIS":"541.239","FILE":"3640431","PERIOD":"95.438","CENTER_NAME":"EARTH","NORAD_CAT_ID":"52533","TLE_LINE1":"1 52533U 22051A   22305.78954518  .00002201  00000-0  15638-3 0  9998","MEAN_MOTION_DDOT":"0.0000000000000","COUNTRY_CODE":"US","GP_ID":"216687096","SEMIMAJOR_AXIS":"6917.901","EPOCH":"2022-11-01T18:56:56.703552","REF_FRAME":"TEME","MEAN_ELEMENT_THEORY":"SGP4","REV_AT_EPOCH":"2667","TLE_LINE2":"2 52533  53.2154 223.4326 0002130  42.3796 317.7361 15.08833276 26671","ECCENTRICITY":"0.00021300","MEAN_MOTION_DOT":"0.00002201","DECAY_DATE":null,"OBJECT_ID":"2022-051A","BSTAR":"0.00015638000000"},{"MEAN_MOTION_DOT":"0.00009014","ECCENTRICITY":"0.00020450","OBJECT_ID":"2022-051B","DECAY_DATE":null,"BSTAR":"0.00058360000000","COUNTRY_CODE":"US","TLE_LINE1":"1 52534U 22051B   22305.79595174  .00009014  00000-0  58360-3 0  9997","MEAN_MOTION_DDOT":"0.0000000000000","REF_FRAME":"TEME","EPOCH":"2022-11-01T19:06:10.230336","SEMIMAJOR_AXIS":"6917.859","GP_ID":"216686349","MEAN_ELEMENT_THEORY":"SGP4","TLE_LINE2":"2 52534  53.2146 223.4048 0002045  46.1577 313.9584 15.08846904 27418","REV_AT_EPOCH":"2741","OBJECT_NAME":"STARLINK-3952","RCS_SIZE":"LARGE","TIME_SYSTEM":"UTC","ELEMENT_SET_NO":"999","CLASSIFICATION_TYPE":"U","EPHEMERIS_TYPE":"0","FILE":"3640431","APOAPSIS":"541.139","PERIOD":"95.437","CENTER_NAME":"EARTH","NORAD_CAT_ID":"52534","OBJECT_TYPE":"PAYLOAD","INCLINATION":"53.2146","LAUNCH_DATE":"2022-05-13","ARG_OF_PERICENTER":"46.1577","PERIAPSIS":"538.310","MEAN_ANOMALY":"313.9584","MEAN_MOTION":"15.08846904","RA_OF_ASC_NODE":"223.4048","SITE":"AFWTR"},{"REF_FRAME":"TEME","EPOCH":"2022-11-01T19:00:52.254144","GP_ID":"216686599","SEMIMAJOR_AXIS":"6917.886","COUNTRY_CODE":"US","MEAN_MOTION_DDOT":"0.0000000000000","TLE_LINE1":"1 52535U 22051C   22305.79227146  .00004878  00000-0  32436-3 0  9998","TLE_LINE2":"2 52535  53.2170 223.4231 0002169  45.1571 314.9597 15.08838267 26675","REV_AT_EPOCH":"2667","MEAN_ELEMENT_THEORY":"SGP4","MEAN_MOTION_DOT":"0.00004878","ECCENTRICITY":"0.00021690","BSTAR":"0.00032436000000","OBJECT_ID":"2022-051C","DECAY_DATE":null,"ARG_OF_PERICENTER":"45.1571","PERIAPSIS":"538.250","OBJECT_TYPE":"PAYLOAD","INCLINATION":"53.2170","LAUNCH_DATE":"2022-05-13","MEAN_MOTION":"15.08838267","RA_OF_ASC_NODE":"223.4231","SITE":"AFWTR","MEAN_ANOMALY":"314.9597","TIME_SYSTEM":"UTC","ELEMENT_SET_NO":"999","CLASSIFICATION_TYPE":"U","EPHEMERIS_TYPE":"0","OBJECT_NAME":"STARLINK-3958","RCS_SIZE":"LARGE","PERIOD":"95.438","NORAD_CAT_ID":"52535","CENTER_NAME":"EARTH","FILE":"3640431","APOAPSIS":"541.251"},{"GP_ID":"216661109","SEMIMAJOR_AXIS":"6917.890","REF_FRAME":"TEME","EPOCH":"2022-11-01T04:37:05.352384","MEAN_MOTION_DDOT":"0.0000000000000","TLE_LINE1":"1 52536U 22051D   22305.19242306  .00002008  00000-0  14425-3 0  9999","COUNTRY_CODE":"US","TLE_LINE2":"2 52536  53.2157 226.1151 0002014  44.4620 315.6534 15.08836947 26580","REV_AT_EPOCH":"2658","MEAN_ELEMENT_THEORY":"SGP4","ECCENTRICITY":"0.00020140","MEAN_MOTION_DOT":"0.00002008","BSTAR":"0.00014425000000","DECAY_DATE":null,"OBJECT_ID":"2022-051D","ARG_OF_PERICENTER":"44.4620","PERIAPSIS":"538.361","LAUNCH_DATE":"2022-05-13","INCLINATION":"53.2157","OBJECT_TYPE":"PAYLOAD","SITE":"AFWTR","MEAN_MOTION":"15.08836947","RA_OF_ASC_NODE":"226.1151","MEAN_ANOMALY":"315.6534","CLASSIFICATION_TYPE":"U","EPHEMERIS_TYPE":"0","TIME_SYSTEM":"UTC","ELEMENT_SET_NO":"999","OBJECT_NAME":"STARLINK-3964","RCS_SIZE":"LARGE","CENTER_NAME":"EARTH","PERIOD":"95.438","NORAD_CAT_ID":"52536","APOAPSIS":"541.148","FILE":"3640409"},{"BSTAR":"0.00016150000000","DECAY_DATE":null,"OBJECT_ID":"2022-051E","ECCENTRICITY":"0.00020480","MEAN_MOTION_DOT":"0.00002283","REV_AT_EPOCH":"2667","TLE_LINE2":"2 52537  53.2164 223.4593 0002048  48.2597 311.8570 15.08837380 26671","MEAN_ELEMENT_THEORY":"SGP4","GP_ID":"216687597","SEMIMAJOR_AXIS":"6917.888","EPOCH":"2022-11-01T18:50:16.675872","REF_FRAME":"TEME","TLE_LINE1":"1 52537U 22051E   22305.78491523  .00002283  00000-0  16150-3 0  9994","MEAN_MOTION_DDOT":"0.0000000000000","COUNTRY_CODE":"US","PERIOD":"95.438","CENTER_NAME":"EARTH","NORAD_CAT_ID":"52537","APOAPSIS":"541.170","FILE":"3640431","EPHEMERIS_TYPE":"0","CLASSIFICATION_TYPE":"U","ELEMENT_SET_NO":"999","TIME_SYSTEM":"UTC","RCS_SIZE":"LARGE","OBJECT_NAME":"STARLINK-3897","SITE":"AFWTR","RA_OF_ASC_NODE":"223.4593","MEAN_MOTION":"15.08837380","MEAN_ANOMALY":"311.8570","PERIAPSIS":"538.337","ARG_OF_PERICENTER":"48.2597","INCLINATION":"53.2164","LAUNCH_DATE":"2022-05-13","OBJECT_TYPE":"PAYLOAD"},{"EPOCH":"2022-11-01T12:18:08.233056","REF_FRAME":"TEME","GP_ID":"216660608","SEMIMAJOR_AXIS":"6917.893","COUNTRY_CODE":"US","TLE_LINE1":"1 52538U 22051F   22305.51259529  .00002585  00000-0  18050-3 0  9990","MEAN_MOTION_DDOT":"0.0000000000000","REV_AT_EPOCH":"2663","TLE_LINE2":"2 52538  53.2171 224.6740 0001902  42.3341 317.7797 15.08835915 26631","MEAN_ELEMENT_THEORY":"SGP4","MEAN_MOTION_DOT":"0.00002585","ECCENTRICITY":"0.00019020","BSTAR":"0.00018050000000","OBJECT_ID":"2022-051F","DECAY_DATE":null,"PERIAPSIS":"538.442","ARG_OF_PERICENTER":"42.3341","OBJECT_TYPE":"PAYLOAD","INCLINATION":"53.2171","LAUNCH_DATE":"2022-05-13","RA_OF_ASC_NODE":"224.6740","MEAN_MOTION":"15.08835915","SITE":"AFWTR","MEAN_ANOMALY":"317.7797","TIME_SYSTEM":"UTC","ELEMENT_SET_NO":"999","EPHEMERIS_TYPE":"0","CLASSIFICATION_TYPE":"U","RCS_SIZE":"LARGE","OBJECT_NAME":"STARLINK-3933","CENTER_NAME":"EARTH","PERIOD":"95.438","NORAD_CAT_ID":"52538","FILE":"3640409","APOAPSIS":"541.074"},{"APOAPSIS":"541.175","FILE":"3640409","PERIOD":"95.438","CENTER_NAME":"EARTH","NORAD_CAT_ID":"52539","OBJECT_NAME":"STARLINK-3757","RCS_SIZE":"LARGE","CLASSIFICATION_TYPE":"U","EPHEMERIS_TYPE":"0","TIME_SYSTEM":"UTC","ELEMENT_SET_NO":"999","MEAN_ANOMALY":"318.1250","SITE":"AFWTR","MEAN_MOTION":"15.08838849","RA_OF_ASC_NODE":"225.8470","INCLINATION":"53.2155","LAUNCH_DATE":"2022-05-13","OBJECT_TYPE":"PAYLOAD","ARG_OF_PERICENTER":"41.9900","PERIAPSIS":"538.323","DECAY_DATE":null,"OBJECT_ID":"2022-051G","BSTAR":"0.00006995000000","ECCENTRICITY":"0.00020610","MEAN_MOTION_DOT":"0.00000825","MEAN_ELEMENT_THEORY":"SGP4","TLE_LINE2":"2 52539  53.2155 225.8470 0002061  41.9900 318.1250 15.08838849 26593","REV_AT_EPOCH":"2659","TLE_LINE1":"1 52539U 22051G   22305.25130541  .00000825  00000-0  69950-4 0  9995","MEAN_MOTION_DDOT":"0.0000000000000","COUNTRY_CODE":"US","SEMIMAJOR_AXIS":"6917.884","GP_ID":"216660358","REF_FRAME":"TEME","EPOCH":"2022-11-01T06:01:52.787424"}];
